{
  "type": "Feature",
  "geometry": {
    "type": "LineString",
    "coordinates": [
      [
        50.0,
        450.0
      ],
      [
        51.0,
        451.0
      ],
      [
        52.0,
        452.0
      ],
      [
        53.0,
        453.0
      ],
      [
        54.0,
        453.0
      ],
      [
        55.0,
        454.0
      ],
      [
        56.0,
        454.0
      ],
      [
        57.0,
        454.0
      ],
      [
        58.0,
        455.0
      ],
      [
        59.0,
        456.0
      ],
      [
        60.0,
        457.0
      ],
      [
        61.0,
        457.0
      ],
      [
        62.0,
        458.0
      ],
      [
        63.0,
        459.0
      ],
      [
        64.0,
        460.0
      ],
      [
        65.0,
        461.0
      ],
      [
        66.0,
        462.0
      ],
      [
        67.0,
        463.0
      ],
      [
        68.0,
        462.0
      ],
      [
        69.0,
        462.0
      ],
      [
        70.0,
        462.0
      ],
      [
        71.0,
        462.0
      ],
      [
        72.0,
        462.0
      ],
      [
        73.0,
        462.0
      ],
      [
        74.0,
        462.0
      ],
      [
        75.0,
        462.0
      ],
      [
        76.0,
        462.0
      ],
      [
        77.0,
        462.0
      ],
      [
        78.0,
        462.0
      ],
      [
        79.0,
        462.0
      ],
      [
        80.0,
        462.0
      ],
      [
        81.0,
        462.0
      ],
      [
        82.0,
        462.0
      ],
      [
        83.0,
        462.0
      ],
      [
        84.0,
        462.0
      ],
      [
        85.0,
        462.0
      ],
      [
        86.0,
        462.0
      ],
      [
        87.0,
        461.0
      ],
      [
        88.0,
        461.0
      ],
      [
        89.0,
        461.0
      ],
      [
        90.0,
        461.0
      ],
      [
        91.0,
        461.0
      ],
      [
        92.0,
        461.0
      ],
      [
        93.0,
        461.0
      ],
      [
        94.0,
        461.0
      ],
      [
        95.0,
        461.0
      ],
      [
        96.0,
        461.0
      ],
      [
        97.0,
        460.0
      ],
      [
        98.0,
        459.0
      ],
      [
        99.0,
        458.0
      ],
      [
        100.0,
        457.0
      ],
      [
        101.0,
        456.0
      ],
      [
        102.0,
        456.0
      ],
      [
        103.0,
        456.0
      ],
      [
        104.0,
        456.0
      ],
      [
        105.0,
        457.0
      ],
      [
        106.0,
        458.0
      ],
      [
        107.0,
        458.0
      ],
      [
        108.0,
        459.0
      ],
      [
        109.0,
        460.0
      ],
      [
        110.0,
        461.0
      ],
      [
        111.0,
        461.0
      ],
      [
        112.0,
        462.0
      ],
      [
        113.0,
        463.0
      ],
      [
        114.0,
        464.0
      ],
      [
        115.0,
        464.0
      ],
      [
        116.0,
        464.0
      ],
      [
        117.0,
        464.0
      ],
      [
        118.0,
        464.0
      ],
      [
        119.0,
        464.0
      ],
      [
        120.0,
        464.0
      ],
      [
        121.0,
        464.0
      ],
      [
        122.0,
        464.0
      ],
      [
        123.0,
        464.0
      ],
      [
        124.0,
        464.0
      ],
      [
        125.0,
        464.0
      ],
      [
        126.0,
        464.0
      ],
      [
        127.0,
        464.0
      ],
      [
        128.0,
        464.0
      ],
      [
        129.0,
        464.0
      ],
      [
        130.0,
        464.0
      ],
      [
        131.0,
        464.0
      ],
      [
        132.0,
        464.0
      ],
      [
        133.0,
        464.0
      ],
      [
        134.0,
        464.0
      ],
      [
        135.0,
        464.0
      ],
      [
        136.0,
        463.0
      ],
      [
        137.0,
        462.0
      ],
      [
        138.0,
        462.0
      ],
      [
        139.0,
        462.0
      ],
      [
        140.0,
        462.0
      ],
      [
        141.0,
        462.0
      ],
      [
        142.0,
        462.0
      ],
      [
        143.0,
        462.0
      ],
      [
        144.0,
        462.0
      ],
      [
        145.0,
        462.0
      ],
      [
        146.0,
        462.0
      ],
      [
        147.0,
        462.0
      ],
      [
        148.0,
        462.0
      ],
      [
        149.0,
        462.0
      ],
      [
        150.0,
        462.0
      ],
      [
        151.0,
        463.0
      ],
      [
        152.0,
        464.0
      ],
      [
        153.0,
        465.0
      ],
      [
        154.0,
        466.0
      ],
      [
        155.0,
        466.0
      ],
      [
        156.0,
        466.0
      ],
      [
        157.0,
        466.0
      ],
      [
        158.0,
        467.0
      ],
      [
        159.0,
        467.0
      ],
      [
        160.0,
        468.0
      ],
      [
        161.0,
        468.0
      ],
      [
        162.0,
        468.0
      ],
      [
        163.0,
        468.0
      ],
      [
        164.0,
        469.0
      ],
      [
        165.0,
        470.0
      ],
      [
        166.0,
        471.0
      ],
      [
        167.0,
        471.0
      ],
      [
        168.0,
        471.0
      ],
      [
        169.0,
        472.0
      ],
      [
        170.0,
        473.0
      ],
      [
        171.0,
        473.0
      ],
      [
        172.0,
        472.0
      ]
    ]
  },
  "properties": {
    "description": "Risk-Aware Lander Navigation Path"
  }
}