{
  "type": "Feature",
  "geometry": {
    "type": "LineString",
    "coordinates": [
      [
        50.0,
        450.0
      ],
      [
        49.0,
        449.0
      ],
      [
        49.0,
        448.0
      ],
      [
        49.0,
        447.0
      ],
      [
        49.0,
        446.0
      ],
      [
        50.0,
        445.0
      ],
      [
        51.0,
        444.0
      ],
      [
        52.0,
        443.0
      ],
      [
        52.0,
        442.0
      ],
      [
        53.0,
        441.0
      ],
      [
        53.0,
        440.0
      ],
      [
        53.0,
        439.0
      ],
      [
        53.0,
        438.0
      ],
      [
        54.0,
        437.0
      ],
      [
        55.0,
        436.0
      ],
      [
        56.0,
        435.0
      ],
      [
        57.0,
        434.0
      ],
      [
        58.0,
        433.0
      ],
      [
        59.0,
        432.0
      ],
      [
        60.0,
        431.0
      ],
      [
        61.0,
        430.0
      ],
      [
        62.0,
        429.0
      ],
      [
        63.0,
        428.0
      ],
      [
        63.0,
        427.0
      ],
      [
        64.0,
        426.0
      ],
      [
        65.0,
        425.0
      ],
      [
        66.0,
        424.0
      ],
      [
        66.0,
        423.0
      ],
      [
        67.0,
        422.0
      ],
      [
        68.0,
        421.0
      ],
      [
        69.0,
        420.0
      ],
      [
        70.0,
        419.0
      ],
      [
        71.0,
        418.0
      ],
      [
        72.0,
        417.0
      ],
      [
        72.0,
        416.0
      ],
      [
        73.0,
        415.0
      ],
      [
        73.0,
        414.0
      ],
      [
        73.0,
        413.0
      ],
      [
        73.0,
        412.0
      ],
      [
        73.0,
        411.0
      ],
      [
        73.0,
        410.0
      ],
      [
        73.0,
        409.0
      ],
      [
        73.0,
        408.0
      ],
      [
        73.0,
        407.0
      ],
      [
        72.0,
        406.0
      ],
      [
        72.0,
        405.0
      ],
      [
        73.0,
        404.0
      ],
      [
        73.0,
        403.0
      ],
      [
        73.0,
        402.0
      ],
      [
        73.0,
        401.0
      ],
      [
        73.0,
        400.0
      ],
      [
        73.0,
        399.0
      ],
      [
        73.0,
        398.0
      ],
      [
        73.0,
        397.0
      ],
      [
        72.0,
        396.0
      ],
      [
        72.0,
        395.0
      ],
      [
        71.0,
        394.0
      ],
      [
        70.0,
        393.0
      ],
      [
        70.0,
        392.0
      ],
      [
        70.0,
        391.0
      ],
      [
        70.0,
        390.0
      ],
      [
        70.0,
        389.0
      ],
      [
        70.0,
        388.0
      ],
      [
        69.0,
        387.0
      ],
      [
        69.0,
        386.0
      ],
      [
        68.0,
        385.0
      ],
      [
        67.0,
        384.0
      ],
      [
        66.0,
        383.0
      ],
      [
        65.0,
        382.0
      ],
      [
        65.0,
        381.0
      ],
      [
        64.0,
        380.0
      ],
      [
        63.0,
        379.0
      ],
      [
        62.0,
        378.0
      ],
      [
        61.0,
        377.0
      ],
      [
        60.0,
        376.0
      ],
      [
        60.0,
        375.0
      ],
      [
        59.0,
        374.0
      ],
      [
        59.0,
        373.0
      ],
      [
        58.0,
        372.0
      ],
      [
        57.0,
        371.0
      ],
      [
        57.0,
        370.0
      ],
      [
        56.0,
        369.0
      ],
      [
        56.0,
        368.0
      ],
      [
        56.0,
        367.0
      ],
      [
        55.0,
        366.0
      ],
      [
        55.0,
        365.0
      ],
      [
        55.0,
        364.0
      ],
      [
        55.0,
        363.0
      ],
      [
        54.0,
        362.0
      ],
      [
        53.0,
        361.0
      ],
      [
        54.0,
        360.0
      ],
      [
        55.0,
        359.0
      ],
      [
        56.0,
        358.0
      ],
      [
        56.0,
        357.0
      ],
      [
        56.0,
        356.0
      ],
      [
        56.0,
        355.0
      ],
      [
        56.0,
        354.0
      ],
      [
        56.0,
        353.0
      ],
      [
        56.0,
        352.0
      ],
      [
        56.0,
        351.0
      ],
      [
        56.0,
        350.0
      ],
      [
        56.0,
        349.0
      ],
      [
        56.0,
        348.0
      ],
      [
        56.0,
        347.0
      ],
      [
        56.0,
        346.0
      ],
      [
        56.0,
        345.0
      ],
      [
        56.0,
        344.0
      ],
      [
        56.0,
        343.0
      ],
      [
        56.0,
        342.0
      ],
      [
        56.0,
        341.0
      ],
      [
        56.0,
        340.0
      ],
      [
        56.0,
        339.0
      ],
      [
        55.0,
        338.0
      ],
      [
        55.0,
        337.0
      ],
      [
        54.0,
        336.0
      ],
      [
        53.0,
        335.0
      ],
      [
        52.0,
        334.0
      ],
      [
        51.0,
        333.0
      ],
      [
        50.0,
        332.0
      ],
      [
        50.0,
        331.0
      ],
      [
        49.0,
        330.0
      ],
      [
        48.0,
        329.0
      ],
      [
        47.0,
        328.0
      ],
      [
        47.0,
        327.0
      ],
      [
        47.0,
        326.0
      ],
      [
        47.0,
        325.0
      ],
      [
        46.0,
        324.0
      ],
      [
        45.0,
        323.0
      ],
      [
        45.0,
        322.0
      ],
      [
        45.0,
        321.0
      ],
      [
        45.0,
        320.0
      ],
      [
        45.0,
        319.0
      ],
      [
        45.0,
        318.0
      ],
      [
        44.0,
        317.0
      ],
      [
        44.0,
        316.0
      ],
      [
        44.0,
        315.0
      ],
      [
        44.0,
        314.0
      ],
      [
        44.0,
        313.0
      ],
      [
        43.0,
        312.0
      ],
      [
        42.0,
        311.0
      ],
      [
        41.0,
        310.0
      ],
      [
        40.0,
        309.0
      ],
      [
        39.0,
        308.0
      ],
      [
        39.0,
        307.0
      ],
      [
        39.0,
        306.0
      ],
      [
        38.0,
        305.0
      ],
      [
        39.0,
        304.0
      ],
      [
        39.0,
        303.0
      ],
      [
        39.0,
        302.0
      ],
      [
        39.0,
        301.0
      ],
      [
        39.0,
        300.0
      ],
      [
        39.0,
        299.0
      ],
      [
        39.0,
        298.0
      ],
      [
        40.0,
        297.0
      ],
      [
        40.0,
        296.0
      ],
      [
        41.0,
        295.0
      ],
      [
        41.0,
        294.0
      ],
      [
        42.0,
        293.0
      ],
      [
        42.0,
        292.0
      ],
      [
        42.0,
        291.0
      ],
      [
        43.0,
        290.0
      ],
      [
        44.0,
        289.0
      ],
      [
        45.0,
        288.0
      ],
      [
        46.0,
        287.0
      ],
      [
        47.0,
        286.0
      ],
      [
        48.0,
        285.0
      ],
      [
        48.0,
        284.0
      ],
      [
        48.0,
        283.0
      ],
      [
        48.0,
        282.0
      ],
      [
        48.0,
        281.0
      ],
      [
        48.0,
        280.0
      ],
      [
        49.0,
        279.0
      ],
      [
        49.0,
        278.0
      ],
      [
        49.0,
        277.0
      ],
      [
        49.0,
        276.0
      ],
      [
        49.0,
        275.0
      ],
      [
        49.0,
        274.0
      ],
      [
        50.0,
        273.0
      ],
      [
        50.0,
        272.0
      ],
      [
        51.0,
        271.0
      ],
      [
        52.0,
        270.0
      ],
      [
        53.0,
        269.0
      ],
      [
        53.0,
        268.0
      ],
      [
        53.0,
        267.0
      ],
      [
        53.0,
        266.0
      ],
      [
        53.0,
        265.0
      ],
      [
        53.0,
        264.0
      ],
      [
        53.0,
        263.0
      ],
      [
        53.0,
        262.0
      ],
      [
        53.0,
        261.0
      ],
      [
        53.0,
        260.0
      ],
      [
        53.0,
        259.0
      ],
      [
        53.0,
        258.0
      ],
      [
        53.0,
        257.0
      ],
      [
        53.0,
        256.0
      ],
      [
        53.0,
        255.0
      ],
      [
        53.0,
        254.0
      ],
      [
        53.0,
        253.0
      ],
      [
        53.0,
        252.0
      ],
      [
        53.0,
        251.0
      ],
      [
        52.0,
        250.0
      ],
      [
        51.0,
        249.0
      ],
      [
        51.0,
        248.0
      ],
      [
        51.0,
        247.0
      ],
      [
        51.0,
        246.0
      ],
      [
        52.0,
        245.0
      ],
      [
        53.0,
        244.0
      ],
      [
        52.0,
        243.0
      ],
      [
        52.0,
        242.0
      ],
      [
        52.0,
        241.0
      ],
      [
        52.0,
        240.0
      ],
      [
        51.0,
        239.0
      ],
      [
        51.0,
        238.0
      ],
      [
        51.0,
        237.0
      ],
      [
        51.0,
        236.0
      ],
      [
        51.0,
        235.0
      ],
      [
        51.0,
        234.0
      ],
      [
        51.0,
        233.0
      ],
      [
        51.0,
        232.0
      ],
      [
        51.0,
        231.0
      ],
      [
        51.0,
        230.0
      ],
      [
        51.0,
        229.0
      ],
      [
        51.0,
        228.0
      ],
      [
        52.0,
        227.0
      ],
      [
        51.0,
        226.0
      ],
      [
        51.0,
        225.0
      ],
      [
        51.0,
        224.0
      ],
      [
        51.0,
        223.0
      ],
      [
        51.0,
        222.0
      ],
      [
        51.0,
        221.0
      ],
      [
        51.0,
        220.0
      ],
      [
        51.0,
        219.0
      ],
      [
        51.0,
        218.0
      ],
      [
        51.0,
        217.0
      ],
      [
        51.0,
        216.0
      ],
      [
        51.0,
        215.0
      ],
      [
        52.0,
        214.0
      ],
      [
        53.0,
        213.0
      ],
      [
        53.0,
        212.0
      ],
      [
        54.0,
        211.0
      ],
      [
        54.0,
        210.0
      ],
      [
        54.0,
        209.0
      ],
      [
        53.0,
        208.0
      ],
      [
        53.0,
        207.0
      ],
      [
        54.0,
        206.0
      ],
      [
        55.0,
        205.0
      ],
      [
        56.0,
        204.0
      ],
      [
        57.0,
        203.0
      ],
      [
        58.0,
        202.0
      ],
      [
        58.0,
        201.0
      ],
      [
        58.0,
        200.0
      ],
      [
        58.0,
        199.0
      ],
      [
        58.0,
        198.0
      ],
      [
        58.0,
        197.0
      ],
      [
        58.0,
        196.0
      ],
      [
        58.0,
        195.0
      ],
      [
        58.0,
        194.0
      ],
      [
        58.0,
        193.0
      ],
      [
        58.0,
        192.0
      ],
      [
        58.0,
        191.0
      ],
      [
        58.0,
        190.0
      ],
      [
        58.0,
        189.0
      ],
      [
        58.0,
        188.0
      ],
      [
        58.0,
        187.0
      ],
      [
        58.0,
        186.0
      ],
      [
        58.0,
        185.0
      ],
      [
        58.0,
        184.0
      ],
      [
        58.0,
        183.0
      ],
      [
        58.0,
        182.0
      ],
      [
        58.0,
        181.0
      ],
      [
        58.0,
        180.0
      ],
      [
        58.0,
        179.0
      ],
      [
        58.0,
        178.0
      ],
      [
        58.0,
        177.0
      ],
      [
        58.0,
        176.0
      ],
      [
        58.0,
        175.0
      ],
      [
        57.0,
        174.0
      ],
      [
        57.0,
        173.0
      ],
      [
        57.0,
        172.0
      ],
      [
        57.0,
        171.0
      ],
      [
        57.0,
        170.0
      ],
      [
        57.0,
        169.0
      ],
      [
        57.0,
        168.0
      ],
      [
        57.0,
        167.0
      ],
      [
        57.0,
        166.0
      ],
      [
        57.0,
        165.0
      ],
      [
        57.0,
        164.0
      ],
      [
        57.0,
        163.0
      ],
      [
        57.0,
        162.0
      ],
      [
        57.0,
        161.0
      ],
      [
        56.0,
        160.0
      ],
      [
        56.0,
        159.0
      ],
      [
        56.0,
        158.0
      ],
      [
        56.0,
        157.0
      ],
      [
        56.0,
        156.0
      ],
      [
        56.0,
        155.0
      ],
      [
        55.0,
        154.0
      ],
      [
        54.0,
        153.0
      ],
      [
        53.0,
        152.0
      ],
      [
        53.0,
        151.0
      ],
      [
        52.0,
        150.0
      ],
      [
        52.0,
        149.0
      ],
      [
        52.0,
        148.0
      ],
      [
        52.0,
        147.0
      ],
      [
        53.0,
        146.0
      ],
      [
        53.0,
        145.0
      ],
      [
        53.0,
        144.0
      ],
      [
        54.0,
        143.0
      ],
      [
        55.0,
        142.0
      ],
      [
        55.0,
        141.0
      ],
      [
        56.0,
        140.0
      ],
      [
        56.0,
        139.0
      ],
      [
        57.0,
        138.0
      ],
      [
        58.0,
        137.0
      ],
      [
        59.0,
        136.0
      ],
      [
        60.0,
        135.0
      ],
      [
        61.0,
        134.0
      ],
      [
        61.0,
        133.0
      ],
      [
        61.0,
        132.0
      ],
      [
        62.0,
        131.0
      ],
      [
        62.0,
        130.0
      ],
      [
        62.0,
        129.0
      ],
      [
        63.0,
        128.0
      ],
      [
        63.0,
        127.0
      ],
      [
        63.0,
        126.0
      ],
      [
        63.0,
        125.0
      ],
      [
        62.0,
        124.0
      ],
      [
        62.0,
        123.0
      ],
      [
        63.0,
        122.0
      ],
      [
        64.0,
        121.0
      ],
      [
        64.0,
        120.0
      ],
      [
        64.0,
        119.0
      ],
      [
        64.0,
        118.0
      ],
      [
        65.0,
        117.0
      ],
      [
        65.0,
        116.0
      ],
      [
        65.0,
        115.0
      ],
      [
        65.0,
        114.0
      ],
      [
        65.0,
        113.0
      ],
      [
        65.0,
        112.0
      ],
      [
        65.0,
        111.0
      ],
      [
        65.0,
        110.0
      ],
      [
        65.0,
        109.0
      ],
      [
        65.0,
        108.0
      ],
      [
        65.0,
        107.0
      ],
      [
        65.0,
        106.0
      ],
      [
        65.0,
        105.0
      ],
      [
        65.0,
        104.0
      ],
      [
        65.0,
        103.0
      ],
      [
        65.0,
        102.0
      ],
      [
        65.0,
        101.0
      ],
      [
        65.0,
        100.0
      ],
      [
        65.0,
        99.0
      ],
      [
        65.0,
        98.0
      ],
      [
        65.0,
        97.0
      ],
      [
        65.0,
        96.0
      ],
      [
        65.0,
        95.0
      ],
      [
        66.0,
        94.0
      ],
      [
        67.0,
        93.0
      ],
      [
        68.0,
        92.0
      ],
      [
        69.0,
        91.0
      ],
      [
        69.0,
        90.0
      ],
      [
        69.0,
        89.0
      ],
      [
        69.0,
        88.0
      ],
      [
        69.0,
        87.0
      ],
      [
        69.0,
        86.0
      ],
      [
        69.0,
        85.0
      ],
      [
        69.0,
        84.0
      ],
      [
        69.0,
        83.0
      ],
      [
        69.0,
        82.0
      ],
      [
        69.0,
        81.0
      ],
      [
        69.0,
        80.0
      ],
      [
        69.0,
        79.0
      ],
      [
        69.0,
        78.0
      ],
      [
        69.0,
        77.0
      ],
      [
        69.0,
        76.0
      ],
      [
        69.0,
        75.0
      ],
      [
        69.0,
        74.0
      ],
      [
        69.0,
        73.0
      ],
      [
        69.0,
        72.0
      ],
      [
        69.0,
        71.0
      ],
      [
        70.0,
        70.0
      ],
      [
        70.0,
        69.0
      ],
      [
        70.0,
        68.0
      ],
      [
        70.0,
        67.0
      ],
      [
        69.0,
        66.0
      ],
      [
        69.0,
        65.0
      ],
      [
        69.0,
        64.0
      ],
      [
        70.0,
        63.0
      ],
      [
        71.0,
        62.0
      ],
      [
        72.0,
        61.0
      ],
      [
        72.0,
        60.0
      ],
      [
        72.0,
        59.0
      ],
      [
        72.0,
        58.0
      ],
      [
        73.0,
        57.0
      ],
      [
        73.0,
        56.0
      ],
      [
        73.0,
        55.0
      ],
      [
        73.0,
        54.0
      ],
      [
        73.0,
        53.0
      ],
      [
        72.0,
        52.0
      ],
      [
        71.0,
        51.0
      ],
      [
        71.0,
        50.0
      ],
      [
        71.0,
        49.0
      ],
      [
        70.0,
        48.0
      ],
      [
        69.0,
        47.0
      ],
      [
        68.0,
        46.0
      ],
      [
        68.0,
        45.0
      ],
      [
        68.0,
        44.0
      ],
      [
        68.0,
        43.0
      ],
      [
        67.0,
        42.0
      ],
      [
        67.0,
        41.0
      ],
      [
        68.0,
        40.0
      ],
      [
        68.0,
        39.0
      ],
      [
        68.0,
        38.0
      ],
      [
        68.0,
        37.0
      ],
      [
        68.0,
        36.0
      ]
    ]
  },
  "properties": {
    "description": "Risk-Aware Lander Navigation Path"
  }
}