{
  "type": "Feature",
  "geometry": {
    "type": "LineString",
    "coordinates": [
      [
        50.0,
        450.0
      ],
      [
        49.0,
        449.0
      ],
      [
        48.0,
        448.0
      ],
      [
        47.0,
        447.0
      ],
      [
        46.0,
        446.0
      ],
      [
        45.0,
        445.0
      ],
      [
        44.0,
        444.0
      ],
      [
        43.0,
        443.0
      ],
      [
        42.0,
        442.0
      ],
      [
        41.0,
        441.0
      ],
      [
        40.0,
        440.0
      ],
      [
        39.0,
        439.0
      ],
      [
        39.0,
        438.0
      ],
      [
        39.0,
        437.0
      ],
      [
        39.0,
        436.0
      ],
      [
        39.0,
        435.0
      ],
      [
        39.0,
        434.0
      ],
      [
        39.0,
        433.0
      ],
      [
        39.0,
        432.0
      ],
      [
        39.0,
        431.0
      ],
      [
        39.0,
        430.0
      ],
      [
        39.0,
        429.0
      ],
      [
        39.0,
        428.0
      ],
      [
        39.0,
        427.0
      ],
      [
        39.0,
        426.0
      ],
      [
        39.0,
        425.0
      ],
      [
        39.0,
        424.0
      ],
      [
        39.0,
        423.0
      ],
      [
        39.0,
        422.0
      ],
      [
        39.0,
        421.0
      ],
      [
        39.0,
        420.0
      ],
      [
        39.0,
        419.0
      ],
      [
        39.0,
        418.0
      ],
      [
        39.0,
        417.0
      ],
      [
        39.0,
        416.0
      ],
      [
        39.0,
        415.0
      ],
      [
        39.0,
        414.0
      ],
      [
        39.0,
        413.0
      ],
      [
        39.0,
        412.0
      ],
      [
        39.0,
        411.0
      ],
      [
        39.0,
        410.0
      ],
      [
        39.0,
        409.0
      ],
      [
        39.0,
        408.0
      ],
      [
        39.0,
        407.0
      ],
      [
        39.0,
        406.0
      ],
      [
        39.0,
        405.0
      ],
      [
        38.0,
        404.0
      ],
      [
        37.0,
        403.0
      ],
      [
        36.0,
        402.0
      ],
      [
        35.0,
        401.0
      ],
      [
        34.0,
        400.0
      ],
      [
        33.0,
        399.0
      ],
      [
        32.0,
        398.0
      ],
      [
        31.0,
        397.0
      ],
      [
        30.0,
        396.0
      ],
      [
        30.0,
        395.0
      ],
      [
        30.0,
        394.0
      ],
      [
        31.0,
        393.0
      ],
      [
        32.0,
        392.0
      ],
      [
        32.0,
        391.0
      ],
      [
        32.0,
        390.0
      ],
      [
        32.0,
        389.0
      ],
      [
        33.0,
        388.0
      ],
      [
        34.0,
        387.0
      ],
      [
        35.0,
        386.0
      ],
      [
        36.0,
        385.0
      ],
      [
        37.0,
        384.0
      ],
      [
        38.0,
        383.0
      ],
      [
        39.0,
        382.0
      ],
      [
        40.0,
        381.0
      ],
      [
        41.0,
        380.0
      ],
      [
        42.0,
        379.0
      ],
      [
        43.0,
        378.0
      ],
      [
        44.0,
        377.0
      ],
      [
        45.0,
        376.0
      ],
      [
        46.0,
        375.0
      ],
      [
        47.0,
        374.0
      ],
      [
        48.0,
        373.0
      ],
      [
        49.0,
        372.0
      ],
      [
        50.0,
        371.0
      ],
      [
        51.0,
        370.0
      ],
      [
        52.0,
        369.0
      ],
      [
        53.0,
        368.0
      ],
      [
        54.0,
        367.0
      ],
      [
        55.0,
        366.0
      ],
      [
        56.0,
        365.0
      ],
      [
        57.0,
        364.0
      ],
      [
        58.0,
        363.0
      ],
      [
        59.0,
        362.0
      ],
      [
        60.0,
        361.0
      ],
      [
        61.0,
        360.0
      ],
      [
        62.0,
        359.0
      ],
      [
        63.0,
        358.0
      ],
      [
        64.0,
        357.0
      ],
      [
        65.0,
        356.0
      ],
      [
        66.0,
        355.0
      ],
      [
        67.0,
        354.0
      ],
      [
        68.0,
        353.0
      ],
      [
        69.0,
        352.0
      ],
      [
        70.0,
        351.0
      ],
      [
        71.0,
        350.0
      ],
      [
        72.0,
        349.0
      ],
      [
        73.0,
        348.0
      ],
      [
        74.0,
        347.0
      ],
      [
        75.0,
        346.0
      ],
      [
        76.0,
        345.0
      ],
      [
        77.0,
        344.0
      ],
      [
        78.0,
        343.0
      ],
      [
        79.0,
        342.0
      ],
      [
        80.0,
        341.0
      ],
      [
        81.0,
        340.0
      ],
      [
        82.0,
        339.0
      ],
      [
        83.0,
        338.0
      ],
      [
        84.0,
        337.0
      ],
      [
        85.0,
        336.0
      ],
      [
        86.0,
        335.0
      ],
      [
        87.0,
        334.0
      ],
      [
        88.0,
        333.0
      ],
      [
        89.0,
        332.0
      ],
      [
        90.0,
        331.0
      ],
      [
        91.0,
        330.0
      ],
      [
        92.0,
        329.0
      ],
      [
        93.0,
        328.0
      ],
      [
        94.0,
        327.0
      ],
      [
        95.0,
        326.0
      ],
      [
        96.0,
        325.0
      ],
      [
        97.0,
        324.0
      ],
      [
        98.0,
        323.0
      ],
      [
        99.0,
        322.0
      ],
      [
        100.0,
        321.0
      ],
      [
        101.0,
        320.0
      ],
      [
        102.0,
        319.0
      ],
      [
        103.0,
        318.0
      ],
      [
        104.0,
        317.0
      ],
      [
        105.0,
        316.0
      ],
      [
        106.0,
        315.0
      ],
      [
        107.0,
        314.0
      ],
      [
        108.0,
        313.0
      ],
      [
        109.0,
        312.0
      ],
      [
        110.0,
        311.0
      ],
      [
        111.0,
        310.0
      ],
      [
        112.0,
        309.0
      ],
      [
        113.0,
        308.0
      ],
      [
        114.0,
        307.0
      ],
      [
        115.0,
        306.0
      ],
      [
        116.0,
        305.0
      ],
      [
        117.0,
        304.0
      ],
      [
        118.0,
        303.0
      ],
      [
        119.0,
        302.0
      ],
      [
        120.0,
        301.0
      ],
      [
        121.0,
        300.0
      ],
      [
        122.0,
        299.0
      ],
      [
        123.0,
        298.0
      ],
      [
        124.0,
        297.0
      ],
      [
        125.0,
        296.0
      ],
      [
        126.0,
        295.0
      ],
      [
        127.0,
        294.0
      ],
      [
        128.0,
        293.0
      ],
      [
        129.0,
        292.0
      ],
      [
        130.0,
        291.0
      ],
      [
        131.0,
        290.0
      ],
      [
        132.0,
        289.0
      ],
      [
        133.0,
        288.0
      ],
      [
        134.0,
        287.0
      ],
      [
        135.0,
        286.0
      ],
      [
        136.0,
        285.0
      ],
      [
        137.0,
        284.0
      ],
      [
        138.0,
        283.0
      ],
      [
        139.0,
        282.0
      ],
      [
        140.0,
        281.0
      ],
      [
        141.0,
        280.0
      ],
      [
        142.0,
        279.0
      ],
      [
        143.0,
        278.0
      ],
      [
        144.0,
        277.0
      ],
      [
        145.0,
        276.0
      ],
      [
        146.0,
        275.0
      ],
      [
        147.0,
        274.0
      ],
      [
        148.0,
        273.0
      ],
      [
        149.0,
        272.0
      ],
      [
        150.0,
        271.0
      ],
      [
        151.0,
        270.0
      ],
      [
        152.0,
        269.0
      ],
      [
        153.0,
        268.0
      ],
      [
        154.0,
        267.0
      ],
      [
        155.0,
        266.0
      ],
      [
        156.0,
        265.0
      ],
      [
        157.0,
        264.0
      ],
      [
        158.0,
        263.0
      ],
      [
        159.0,
        262.0
      ],
      [
        160.0,
        261.0
      ],
      [
        161.0,
        260.0
      ],
      [
        162.0,
        259.0
      ],
      [
        163.0,
        258.0
      ],
      [
        164.0,
        257.0
      ],
      [
        165.0,
        256.0
      ],
      [
        166.0,
        255.0
      ],
      [
        167.0,
        254.0
      ],
      [
        168.0,
        253.0
      ],
      [
        169.0,
        252.0
      ],
      [
        170.0,
        251.0
      ],
      [
        171.0,
        250.0
      ],
      [
        172.0,
        249.0
      ],
      [
        173.0,
        248.0
      ],
      [
        174.0,
        247.0
      ],
      [
        175.0,
        246.0
      ],
      [
        176.0,
        245.0
      ],
      [
        177.0,
        244.0
      ],
      [
        178.0,
        243.0
      ],
      [
        179.0,
        242.0
      ],
      [
        180.0,
        241.0
      ],
      [
        181.0,
        240.0
      ],
      [
        182.0,
        239.0
      ],
      [
        183.0,
        238.0
      ],
      [
        184.0,
        237.0
      ],
      [
        185.0,
        236.0
      ],
      [
        186.0,
        235.0
      ],
      [
        187.0,
        234.0
      ],
      [
        188.0,
        233.0
      ],
      [
        189.0,
        232.0
      ],
      [
        190.0,
        231.0
      ],
      [
        191.0,
        230.0
      ],
      [
        192.0,
        229.0
      ],
      [
        193.0,
        228.0
      ],
      [
        194.0,
        227.0
      ],
      [
        195.0,
        226.0
      ],
      [
        196.0,
        225.0
      ],
      [
        197.0,
        224.0
      ],
      [
        198.0,
        223.0
      ],
      [
        199.0,
        222.0
      ],
      [
        200.0,
        221.0
      ],
      [
        201.0,
        220.0
      ],
      [
        202.0,
        219.0
      ],
      [
        203.0,
        218.0
      ],
      [
        204.0,
        217.0
      ],
      [
        205.0,
        216.0
      ],
      [
        206.0,
        215.0
      ],
      [
        207.0,
        214.0
      ],
      [
        208.0,
        213.0
      ],
      [
        209.0,
        212.0
      ],
      [
        210.0,
        211.0
      ],
      [
        211.0,
        210.0
      ],
      [
        212.0,
        209.0
      ],
      [
        213.0,
        208.0
      ],
      [
        214.0,
        207.0
      ],
      [
        215.0,
        206.0
      ],
      [
        216.0,
        205.0
      ],
      [
        217.0,
        204.0
      ],
      [
        218.0,
        203.0
      ],
      [
        219.0,
        202.0
      ],
      [
        220.0,
        201.0
      ],
      [
        221.0,
        200.0
      ],
      [
        222.0,
        199.0
      ],
      [
        223.0,
        198.0
      ],
      [
        224.0,
        197.0
      ],
      [
        225.0,
        196.0
      ],
      [
        226.0,
        195.0
      ],
      [
        227.0,
        194.0
      ],
      [
        228.0,
        193.0
      ],
      [
        229.0,
        192.0
      ],
      [
        230.0,
        191.0
      ],
      [
        231.0,
        190.0
      ],
      [
        232.0,
        189.0
      ],
      [
        233.0,
        188.0
      ],
      [
        234.0,
        187.0
      ],
      [
        235.0,
        186.0
      ],
      [
        236.0,
        185.0
      ],
      [
        237.0,
        184.0
      ],
      [
        238.0,
        183.0
      ],
      [
        239.0,
        182.0
      ],
      [
        240.0,
        181.0
      ],
      [
        241.0,
        180.0
      ],
      [
        242.0,
        179.0
      ],
      [
        243.0,
        179.0
      ],
      [
        244.0,
        179.0
      ],
      [
        245.0,
        179.0
      ],
      [
        246.0,
        179.0
      ],
      [
        247.0,
        180.0
      ],
      [
        248.0,
        181.0
      ],
      [
        249.0,
        182.0
      ],
      [
        250.0,
        183.0
      ],
      [
        251.0,
        184.0
      ],
      [
        252.0,
        185.0
      ],
      [
        253.0,
        186.0
      ],
      [
        254.0,
        187.0
      ],
      [
        255.0,
        188.0
      ],
      [
        256.0,
        189.0
      ],
      [
        257.0,
        190.0
      ],
      [
        258.0,
        191.0
      ],
      [
        259.0,
        192.0
      ],
      [
        260.0,
        193.0
      ],
      [
        261.0,
        194.0
      ],
      [
        262.0,
        195.0
      ],
      [
        263.0,
        196.0
      ],
      [
        264.0,
        197.0
      ],
      [
        265.0,
        198.0
      ],
      [
        266.0,
        199.0
      ],
      [
        267.0,
        200.0
      ],
      [
        268.0,
        201.0
      ],
      [
        269.0,
        201.0
      ],
      [
        270.0,
        201.0
      ],
      [
        271.0,
        201.0
      ],
      [
        272.0,
        201.0
      ],
      [
        273.0,
        201.0
      ],
      [
        274.0,
        201.0
      ],
      [
        275.0,
        201.0
      ],
      [
        276.0,
        201.0
      ],
      [
        277.0,
        201.0
      ],
      [
        278.0,
        202.0
      ],
      [
        279.0,
        203.0
      ],
      [
        280.0,
        204.0
      ],
      [
        281.0,
        205.0
      ],
      [
        282.0,
        206.0
      ],
      [
        283.0,
        207.0
      ],
      [
        284.0,
        208.0
      ],
      [
        285.0,
        209.0
      ],
      [
        286.0,
        210.0
      ],
      [
        287.0,
        211.0
      ],
      [
        288.0,
        212.0
      ],
      [
        289.0,
        213.0
      ],
      [
        290.0,
        214.0
      ],
      [
        291.0,
        215.0
      ],
      [
        292.0,
        216.0
      ],
      [
        293.0,
        217.0
      ],
      [
        294.0,
        218.0
      ],
      [
        295.0,
        219.0
      ],
      [
        296.0,
        220.0
      ],
      [
        297.0,
        221.0
      ],
      [
        298.0,
        222.0
      ],
      [
        299.0,
        223.0
      ],
      [
        300.0,
        224.0
      ],
      [
        301.0,
        225.0
      ],
      [
        302.0,
        226.0
      ],
      [
        303.0,
        227.0
      ],
      [
        304.0,
        228.0
      ],
      [
        305.0,
        229.0
      ],
      [
        306.0,
        230.0
      ],
      [
        307.0,
        231.0
      ],
      [
        308.0,
        232.0
      ],
      [
        309.0,
        233.0
      ],
      [
        310.0,
        234.0
      ],
      [
        311.0,
        235.0
      ],
      [
        312.0,
        236.0
      ],
      [
        313.0,
        237.0
      ],
      [
        314.0,
        238.0
      ],
      [
        315.0,
        239.0
      ],
      [
        316.0,
        240.0
      ],
      [
        317.0,
        241.0
      ],
      [
        318.0,
        242.0
      ],
      [
        319.0,
        243.0
      ],
      [
        320.0,
        244.0
      ],
      [
        321.0,
        245.0
      ],
      [
        322.0,
        246.0
      ],
      [
        323.0,
        247.0
      ],
      [
        324.0,
        248.0
      ],
      [
        325.0,
        249.0
      ],
      [
        326.0,
        250.0
      ],
      [
        327.0,
        251.0
      ],
      [
        328.0,
        252.0
      ],
      [
        329.0,
        253.0
      ],
      [
        330.0,
        254.0
      ],
      [
        331.0,
        255.0
      ],
      [
        332.0,
        256.0
      ],
      [
        333.0,
        257.0
      ],
      [
        334.0,
        258.0
      ],
      [
        335.0,
        259.0
      ],
      [
        336.0,
        260.0
      ],
      [
        337.0,
        261.0
      ],
      [
        338.0,
        262.0
      ],
      [
        339.0,
        263.0
      ],
      [
        340.0,
        264.0
      ],
      [
        341.0,
        265.0
      ],
      [
        342.0,
        266.0
      ],
      [
        343.0,
        267.0
      ],
      [
        344.0,
        268.0
      ],
      [
        345.0,
        269.0
      ],
      [
        346.0,
        270.0
      ],
      [
        347.0,
        271.0
      ],
      [
        348.0,
        272.0
      ],
      [
        349.0,
        272.0
      ],
      [
        350.0,
        272.0
      ],
      [
        351.0,
        271.0
      ],
      [
        352.0,
        270.0
      ],
      [
        353.0,
        270.0
      ],
      [
        354.0,
        270.0
      ],
      [
        355.0,
        270.0
      ],
      [
        356.0,
        270.0
      ],
      [
        357.0,
        270.0
      ],
      [
        358.0,
        270.0
      ],
      [
        359.0,
        270.0
      ],
      [
        360.0,
        270.0
      ],
      [
        361.0,
        270.0
      ],
      [
        362.0,
        270.0
      ],
      [
        363.0,
        270.0
      ],
      [
        364.0,
        270.0
      ],
      [
        365.0,
        270.0
      ],
      [
        366.0,
        270.0
      ],
      [
        367.0,
        270.0
      ],
      [
        368.0,
        270.0
      ],
      [
        369.0,
        270.0
      ],
      [
        370.0,
        270.0
      ],
      [
        371.0,
        270.0
      ],
      [
        372.0,
        270.0
      ],
      [
        373.0,
        270.0
      ],
      [
        374.0,
        270.0
      ],
      [
        375.0,
        270.0
      ],
      [
        376.0,
        270.0
      ],
      [
        377.0,
        270.0
      ],
      [
        378.0,
        270.0
      ],
      [
        379.0,
        270.0
      ],
      [
        380.0,
        270.0
      ],
      [
        381.0,
        270.0
      ],
      [
        382.0,
        270.0
      ],
      [
        383.0,
        270.0
      ],
      [
        384.0,
        270.0
      ],
      [
        385.0,
        270.0
      ],
      [
        386.0,
        270.0
      ],
      [
        387.0,
        270.0
      ],
      [
        388.0,
        270.0
      ],
      [
        389.0,
        270.0
      ],
      [
        390.0,
        270.0
      ]
    ]
  },
  "properties": {
    "description": "Risk-Aware Lander Navigation Path"
  }
}